#aV2009 10  4  0  0   .00000000      96 DD+AD WGS84 FIT  NGA
## 1552       .00000000   900.00000000 55108  .0000000000000
+   32     1  2  3  4  5  6  7  8  9 10 11 12 13 14 15 16 17
+         18 19 20 21 22 23 24 25 26 27 28 29 30 31 32  0  0
+          0  0  0  0  0  0  0  0  0  0  0  0  0  0  0  0  0
+          0  0  0  0  0  0  0  0  0  0  0  0  0  0  0  0  0
+          0  0  0  0  0  0  0  0  0  0  0  0  0  0  0  0  0
++         0  0  0  0  0  0  0  0  0  0  0  0  0  0  0  0  0
++         0  0  0  0  0  0  0  0  0  0  0  0  0  0  0  0  0
++         0  0  0  0  0  0  0  0  0  0  0  0  0  0  0  0  0
++         0  0  0  0  0  0  0  0  0  0  0  0  0  0  0  0  0
++         0  0  0  0  0  0  0  0  0  0  0  0  0  0  0  0  0
%c cc cc ccc ccc cccc cccc cccc cccc ccccc ccccc ccccc ccccc
%c cc cc ccc ccc cccc cccc cccc cccc ccccc ccccc ccccc ccccc
%f  0.0000000  0.000000000  0.00000000000  0.000000000000000
%f  0.0000000  0.000000000  0.00000000000  0.000000000000000
%i    0    0    0    0      0      0      0      0         0
%i    0    0    0    0      0      0      0      0         0
/*      NGA, ST. LOUIS,MO.                                  
/*   EPHEMERIS COMPUTED FROM  3 DAYS OF DATA                
/* CCCCCCCCCCCCCCCCCCCCCCCCCCCCCCCCCCCCCCCCCCCCCCCCCCCCCCCCC
/* CCCCCCCCCCCCCCCCCCCCCCCCCCCCCCCCCCCCCCCCCCCCCCCCCCCCCCCCC
*  2009 10  4 19 45   .00000000                                                 
P  1 -19058.101430  17913.610682  -4394.442569    -59.301908                    
V  1  -6068.971742    992.903862  31186.730418      -.011158                    
P  2 -13194.108818 -17802.151381 -15020.500959    177.974462                    
V  2   -129.749957 -18954.204997  22261.547458       .034236                    
P  3  24457.645598  10357.622087  -3528.784196    456.108368                    
V  3  -4910.942299   2148.323109 -30331.469279       .052459                    
P  4  -7606.667143 -24314.898035  -6937.951646   -295.747640                    
V  4   2643.745468  -9056.234002  29834.053218      -.176014                    
P  5 -18496.467692  -2781.007811 -18893.370207    -73.399482                    
V  5  18486.035047 -15281.338753 -15787.523103       .095098                    
P  6  22305.108800  13223.030261  -5788.725819    248.835197                    
V  6  -8332.690231    502.666915 -29927.888531       .049632                    
P  7   7962.447019 -20567.449419 -14705.740090     10.241472                    
V  7   3952.865041  18370.251777 -23727.583037      -.006974                    
P  8    962.457539 -26066.678403  -3176.249885   -223.785709                    
V  8   2462.033256   3932.568767 -32414.597373      -.013386                    
P  9 -14243.713147   2979.223814  21559.963714     81.163697                    
V  9  -4134.588465 -28633.998170   1242.063980       .021132                    
P 10 -17069.073641  -5263.691051 -19916.693443    -25.077381                    
V 10  19844.873368 -15007.677160 -12814.606525      -.009001                    
P 11  15269.416614  -6615.123833  20459.060030    -22.686152                    
V 11   9068.517294  25279.820385   1756.417411      -.017479                    
P 12 -23239.095921   9891.443412   8063.044071   -209.248265                    
V 12   6806.442691  -7988.500615  29736.435800       .055551                    
P 13  10535.684766 -10676.248245 -22046.124265    305.355842                    
V 13  24370.658603  12952.575439   5387.432883       .003392                    
P 14   6644.694635  17363.662615  19153.455178    -42.072037                    
V 14 -21849.170199  -9787.907966  16442.311404       .050861                    
P 15 -25210.904690  -6588.436198   5375.005852   -319.717818                    
V 15  -5133.534778  -5253.107466 -30607.453587      -.006197                    
P 16  12200.119677   9545.725338 -21556.217111      5.944394                    
V 16 -22337.094575  15911.390788  -5344.297106      -.039760                    
P 17  -6873.565946 -17680.365107  18743.875811     90.339373                    
V 17  21936.706371   8757.192514  16171.561163       .032336                    
P 18 -14662.690086  19394.641294  10476.116333     17.728799                    
V 18 -12646.520562   4753.077699 -27523.811704       .028694                    
P 19  24598.295363   7067.925518   7657.095513      7.842241                    
V 19   7276.811648   6737.136531 -29498.311575      -.017545                    
P 20  22583.204615 -13058.943673   4738.816971     70.748318                    
V 20  -2795.975059   6516.692090  30537.980194      -.008833                    
P 21  -6011.722049  22988.377468 -10912.978917    -13.122253                    
V 21  -5000.058998 -14165.824638 -27027.105560      -.022980                    
P 22  -3553.126723  18849.216996  18506.364705    189.508336                    
V 22 -20243.099698  11605.565274 -15929.708734      -.008495                    
P 23  21704.914670  -1825.963350 -15440.762079    387.888354                    
V 23  17032.635555   9435.000606  22576.910347      -.004404                    
P 24 -13356.829349  11871.463909 -19606.894789    225.898058                    
V 24  -2625.281751 -25007.650264 -13022.028947       .030316                    
P 25  10468.529312 -14621.816444 -19272.298543    619.267015                    
V 25   6108.307674  24383.318375 -14737.680749       .140936                    
P 26  -2517.832197  14510.406373  21513.007584      9.186246                    
V 26 -25681.349937 -12588.931836   5819.442143      -.012661                    
P 27 -15510.093373  -1914.815968  22168.784426     88.405693                    
V 27  -4011.879371 -26166.174768  -5199.332124       .032800                    
P 28   6098.916456 -19011.746559  17797.300503    -26.014180                    
V 28  18940.270716 -10984.602155 -18998.752267       .000721                    
P 29 -13409.992273   9649.893915 -20693.048363     63.193648                    
V 29 -23546.046981 -12196.658064   9569.343779       .031625                    
P 30 -19397.005263  17943.519110  -2696.470251    182.214361                    
V 30  -4241.002886   -553.003996  31377.662937       .030601                    
P 31   8443.669314  23492.117645  -8655.594979    -63.458225                    
V 31  -1119.896761  11490.034667  29532.057217       .006086                    
P 32  23421.137322  -4654.694529  11703.298383    184.170647                    
V 32 -11015.206103   9561.342993  27006.034571      -.072809                    
EOF
